{
  "links" : {
    "next" : "https://api.nasa.gov/neo/rest/v1/feed?start_date=2010-04-09&end_date=2010-04-09&detailed=true&api_key=t0TVs3DtDT2H8Oy2Zy8m2eVrNsAVKAexjcZXUckd",
    "prev" : "https://api.nasa.gov/neo/rest/v1/feed?start_date=2010-04-07&end_date=2010-04-07&detailed=true&api_key=t0TVs3DtDT2H8Oy2Zy8m2eVrNsAVKAexjcZXUckd",
    "self" : "https://api.nasa.gov/neo/rest/v1/feed?start_date=2010-04-08&end_date=2010-04-08&detailed=true&api_key=t0TVs3DtDT2H8Oy2Zy8m2eVrNsAVKAexjcZXUckd"
  },
  "element_count" : 5,
  "near_earth_objects" : {
    "2010-04-08" : [ {
      "links" : {
        "self" : "https://api.nasa.gov/neo/rest/v1/neo/3120863?api_key=t0TVs3DtDT2H8Oy2Zy8m2eVrNsAVKAexjcZXUckd"
      },
      "neo_reference_id" : "3120863",
      "name" : "(2002 GQ)",
      "nasa_jpl_url" : "http://ssd.jpl.nasa.gov/sbdb.cgi?sstr=3120863",
      "absolute_magnitude_h" : 26.3,
      "estimated_diameter" : {
        "kilometers" : {
          "estimated_diameter_min" : 0.0146067964,
          "estimated_diameter_max" : 0.0326617897
        },
        "meters" : {
          "estimated_diameter_min" : 14.6067964271,
          "estimated_diameter_max" : 32.6617897446
        },
        "miles" : {
          "estimated_diameter_min" : 0.0090762397,
          "estimated_diameter_max" : 0.020295089
        },
        "feet" : {
          "estimated_diameter_min" : 47.92256199,
          "estimated_diameter_max" : 107.1581062656
        }
      },
      "is_potentially_hazardous_asteroid" : false,
      "close_approach_data" : [ {
        "close_approach_date" : "2010-04-08",
        "epoch_date_close_approach" : 1270710000000,
        "relative_velocity" : {
          "kilometers_per_second" : "23.4294561672",
          "kilometers_per_hour" : "84346.0422019117",
          "miles_per_hour" : "52409.3505004045"
        },
        "miss_distance" : {
          "astronomical" : "0.4584011593",
          "lunar" : "178.3180541992",
          "kilometers" : "68575840",
          "miles" : "42611052"
        },
        "orbiting_body" : "Earth"
      } ],
      "orbital_data" : {
        "orbit_id" : "9",
        "orbit_determination_date" : "2017-04-06 09:15:16",
        "orbit_uncertainty" : "7",
        "minimum_orbit_intersection" : ".00155558",
        "jupiter_tisserand_invariant" : "7.471",
        "epoch_osculation" : "2458000.5",
        "eccentricity" : ".3751314373789389",
        "semi_major_axis" : ".7685044424731997",
        "inclination" : "10.61402197650685",
        "ascending_node_longitude" : "189.4290073641288",
        "orbital_period" : "246.0752870602644",
        "perihelion_distance" : ".4802142663361282",
        "perihelion_argument" : "206.3336353841463",
        "aphelion_distance" : "1.056794618610271",
        "perihelion_time" : "2457934.763187911001",
        "mean_anomaly" : "96.17078023053993",
        "mean_motion" : "1.462966900499176",
        "equinox" : "J2000"
      }
    }, {
      "links" : {
        "self" : "https://api.nasa.gov/neo/rest/v1/neo/3515026?api_key=t0TVs3DtDT2H8Oy2Zy8m2eVrNsAVKAexjcZXUckd"
      },
      "neo_reference_id" : "3515026",
      "name" : "(2010 GF7)",
      "nasa_jpl_url" : "http://ssd.jpl.nasa.gov/sbdb.cgi?sstr=3515026",
      "absolute_magnitude_h" : 25.9,
      "estimated_diameter" : {
        "kilometers" : {
          "estimated_diameter_min" : 0.0175612318,
          "estimated_diameter_max" : 0.0392681082
        },
        "meters" : {
          "estimated_diameter_min" : 17.561231848,
          "estimated_diameter_max" : 39.2681081809
        },
        "miles" : {
          "estimated_diameter_min" : 0.0109120402,
          "estimated_diameter_max" : 0.0244000636
        },
        "feet" : {
          "estimated_diameter_min" : 57.6155918963,
          "estimated_diameter_max" : 128.8323800441
        }
      },
      "is_potentially_hazardous_asteroid" : false,
      "close_approach_data" : [ {
        "close_approach_date" : "2010-04-08",
        "epoch_date_close_approach" : 1270710000000,
        "relative_velocity" : {
          "kilometers_per_second" : "9.6992129999",
          "kilometers_per_hour" : "34917.1667995766",
          "miles_per_hour" : "21696.1695594369"
        },
        "miss_distance" : {
          "astronomical" : "0.0073191652",
          "lunar" : "2.8471553326",
          "kilometers" : "1094931.625",
          "miles" : "680358.9375"
        },
        "orbiting_body" : "Earth"
      } ],
      "orbital_data" : {
        "orbit_id" : "9",
        "orbit_determination_date" : "2017-04-06 08:57:55",
        "orbit_uncertainty" : "7",
        "minimum_orbit_intersection" : ".00607676",
        "jupiter_tisserand_invariant" : "4.105",
        "epoch_osculation" : "2458000.5",
        "eccentricity" : ".4503591086836288",
        "semi_major_axis" : "1.682958567504541",
        "inclination" : "3.712685879985667",
        "ascending_node_longitude" : "24.78256761911816",
        "orbital_period" : "797.459366322568",
        "perihelion_distance" : ".9250228470917193",
        "perihelion_argument" : "215.1469337790732",
        "aphelion_distance" : "2.440894287917363",
        "perihelion_time" : "2457720.045522798332",
        "mean_anomaly" : "126.6065909516966",
        "mean_motion" : ".4514336594478996",
        "equinox" : "J2000"
      }
    }, {
      "links" : {
        "self" : "https://api.nasa.gov/neo/rest/v1/neo/3520208?api_key=t0TVs3DtDT2H8Oy2Zy8m2eVrNsAVKAexjcZXUckd"
      },
      "neo_reference_id" : "3520208",
      "name" : "(2010 JN33)",
      "nasa_jpl_url" : "http://ssd.jpl.nasa.gov/sbdb.cgi?sstr=3520208",
      "absolute_magnitude_h" : 20.5,
      "estimated_diameter" : {
        "kilometers" : {
          "estimated_diameter_min" : 0.2111324448,
          "estimated_diameter_max" : 0.4721064988
        },
        "meters" : {
          "estimated_diameter_min" : 211.1324447897,
          "estimated_diameter_max" : 472.1064988055
        },
        "miles" : {
          "estimated_diameter_min" : 0.1311915784,
          "estimated_diameter_max" : 0.2933532873
        },
        "feet" : {
          "estimated_diameter_min" : 692.6917701639,
          "estimated_diameter_max" : 1548.9058855411
        }
      },
      "is_potentially_hazardous_asteroid" : false,
      "close_approach_data" : [ {
        "close_approach_date" : "2010-04-08",
        "epoch_date_close_approach" : 1270710000000,
        "relative_velocity" : {
          "kilometers_per_second" : "28.9695865348",
          "kilometers_per_hour" : "104290.5115251047",
          "miles_per_hour" : "64802.0681195852"
        },
        "miss_distance" : {
          "astronomical" : "0.3460651864",
          "lunar" : "134.619354248",
          "kilometers" : "51770616",
          "miles" : "32168770"
        },
        "orbiting_body" : "Earth"
      } ],
      "orbital_data" : {
        "orbit_id" : "14",
        "orbit_determination_date" : "2017-04-06 08:57:37",
        "orbit_uncertainty" : "1",
        "minimum_orbit_intersection" : ".256539",
        "jupiter_tisserand_invariant" : "3.975",
        "epoch_osculation" : "2458000.5",
        "eccentricity" : ".2876202252648192",
        "semi_major_axis" : "1.554413314707177",
        "inclination" : "53.15226136310466",
        "ascending_node_longitude" : "199.9294585834212",
        "orbital_period" : "707.8613309949072",
        "perihelion_distance" : "1.107332606976464",
        "perihelion_argument" : "64.84025305523836",
        "aphelion_distance" : "2.001494022437889",
        "perihelion_time" : "2458183.474243587500",
        "mean_anomaly" : "266.9440230632209",
        "mean_motion" : ".5085741857010552",
        "equinox" : "J2000"
      }
    } ]
  }
}